[{"OBJECT_NAME":"STARLINK-3567","OBJECT_ID":"2022-022V","EPOCH":"2026-03-09T05:12:26.354016","MEAN_MOTION":15.08840488,"ECCENTRICITY":0.00017614,"INCLINATION":53.2206,"RA_OF_ASC_NODE":11.2434,"ARG_OF_PERICENTER":84.8005,"MEAN_ANOMALY":275.3188,"EPHEMERIS_TYPE":0,"CLASSIFICATION_TYPE":"U","NORAD_CAT_ID":51871,"ELEMENT_SET_NO":999,"REV_AT_EPOCH":22315,"BSTAR":-5.4139838e-5,"MEAN_MOTION_DOT":-1.15e-5,"MEAN_MOTION_DDOT":0},{"OBJECT_NAME":"SLS DEB","OBJECT_ID":"2022-156E","EPOCH":"2026-03-08T23:54:32.461920","MEAN_MOTION":13.34108685,"ECCENTRICITY":0.10223164,"INCLINATION":30.4694,"RA_OF_ASC_NODE":285.8849,"ARG_OF_PERICENTER":318.6769,"MEAN_ANOMALY":34.0679,"EPHEMERIS_TYPE":0,"CLASSIFICATION_TYPE":"U","NORAD_CAT_ID":55905,"ELEMENT_SET_NO":999,"REV_AT_EPOCH":14064,"BSTAR":0.0048011197,"MEAN_MOTION_DOT":0.00073659,"MEAN_MOTION_DDOT":0}]
